*******************************************************************************
Ephemeris / WWW_USER Fri Mar  7 11:00:45 2025 Pasadena, USA      / Horizons    
*******************************************************************************
Target body name: (2018 TZ5)                      {source: JPL#13}
Center body name: Earth (399)                     {source: DE441}
Center-site name: Mauna Kea
*******************************************************************************
Start time      : A.D. 2018-Aug-02 05:08:00.0000 UT      
Stop  time      : A.D. 2018-Aug-02 15:48:00.0000 UT      
Step-size       : 1 minutes
*******************************************************************************
Target pole/equ : undefined
Target radii    : undefined                                                    
Center geodetic : 204.5278, 19.8260847, 4.21024   {E-lon(deg),Lat(deg),Alt(km)}
Center cylindric: 204.5278, 6006.35451, 2151.0229 {E-lon(deg),Dxy(km),Dz(km)}
Center pole/equ : ITRF93                          {East-longitude positive}
Center radii    : 6378.137, 6378.137, 6356.752 km {Equator_a, b, pole_c}       
Target primary  : Sun
Vis. interferer : MOON (R_eq= 1737.400) km        {source: DE441}
Rel. light bend : Sun                             {source: DE441}
Rel. lght bnd GM: 1.3271E+11 km^3/s^2                                          
Small-body perts: Yes                             {source: SB441-N16}
Atmos refraction: NO (AIRLESS)
RA format       : HMS
Time format     : CAL 
Calendar mode   : Mixed Julian/Gregorian
RTS-only print  : NO       
EOP file        : eop.250306.p250602                                           
EOP coverage    : DATA-BASED 1962-JAN-20 TO 2025-MAR-06. PREDICTS-> 2025-JUN-01
Units conversion: 1 au= 149597870.700 km, c= 299792.458 km/s, 1 day= 86400.0 s 
Table cut-offs 1: Elevation (-90.0deg=NO ),Airmass (>38.000=NO), Daylight (YES)
Table cut-offs 2: Solar elongation (  0.0,180.0=NO ),Local Hour Angle( 0.0=NO )
Table cut-offs 3: RA/DEC angular rate (     0.0=NO )                           
*******************************************************************************
Initial IAU76/J2000 heliocentric ecliptic osculating elements (au, days, deg.):
  EPOCH=  2458421.5 ! 2018-Oct-30.00 (TDB)         Residual RMS= .3052         
   EC= .5505022016549632   QR= .8932716909804733   TP= 2458367.6074299323      
   OM= 132.9772150011661   W=  197.0626448515302   IN= 1.165364587967566       
  Equivalent ICRF heliocentric cartesian coordinates (au, au/d):
   X= 9.139681807821705E-01  Y= 6.232256283970929E-01  Z= 2.452583568287751E-01
  VX=-4.619682259947144E-03 VY= 1.729028462648113E-02 VZ= 7.287606215643615E-03
Asteroid physical parameters (km, seconds, rotational period in hours):        
   GM= n.a.                RAD= n.a.               ROTPER= n.a.                
   H= 24.4                 G= .150                 B-V= n.a.                   
                           ALBEDO= n.a.            STYP= n.a.                  
*******************************************************************************
 Date__(UT)__HR:MN     R.A._________(ICRF)_________DEC
******************************************************
$$SOE
 2018-Aug-02 15:23 Nm  13 36 05.998144 -08 37 03.31721
 2018-Aug-02 15:24 Nm  13 36 06.055859 -08 37 03.72614
 2018-Aug-02 15:25 Nm  13 36 06.113573 -08 37 04.13512
 2018-Aug-02 15:26 Nm  13 36 06.171287 -08 37 04.54415
 2018-Aug-02 15:27 Nm  13 36 06.229000 -08 37 04.95324
 2018-Aug-02 15:28 Nm  13 36 06.286713 -08 37 05.36239
 2018-Aug-02 15:29 Nm  13 36 06.344425 -08 37 05.77159
 2018-Aug-02 15:30 Nm  13 36 06.402136 -08 37 06.18086
 2018-Aug-02 15:31 Nm  13 36 06.459847 -08 37 06.59017
 2018-Aug-02 15:32 Nm  13 36 06.517556 -08 37 06.99955
 2018-Aug-02 15:33 Nm  13 36 06.575264 -08 37 07.40898
 2018-Aug-02 15:34 Nm  13 36 06.632971 -08 37 07.81846
 2018-Aug-02 15:35 Cm  13 36 06.690677 -08 37 08.22801
 2018-Aug-02 15:36 Cm  13 36 06.748381 -08 37 08.63761
 2018-Aug-02 15:37 Cm  13 36 06.806084 -08 37 09.04726
 2018-Aug-02 15:38 Cm  13 36 06.863785 -08 37 09.45698
 2018-Aug-02 15:39 Cm  13 36 06.921485 -08 37 09.86674
 2018-Aug-02 15:40 Cm  13 36 06.979182 -08 37 10.27657
 2018-Aug-02 15:41 Cm  13 36 07.036878 -08 37 10.68645
 2018-Aug-02 15:42 Cm  13 36 07.094572 -08 37 11.09639
 2018-Aug-02 15:43 Cm  13 36 07.152263 -08 37 11.50638
 2018-Aug-02 15:44 Cm  13 36 07.209953 -08 37 11.91643
 2018-Aug-02 15:45 Cm  13 36 07.267640 -08 37 12.32654
 2018-Aug-02 15:46 Cm  13 36 07.325324 -08 37 12.73670
 2018-Aug-02 15:47 Cm  13 36 07.383007 -08 37 13.14692
 2018-Aug-02 15:48 Cm  13 36 07.440686 -08 37 13.55720
